{"type": "FeatureCollection", "features": [ {"type": "Feature", "properties": {"norad_id": 33939, "name": "COSMOS 2251 DEB", "group": "cosmos-2251-debris", "lat": 64.8427922476083, "lon": 126.57836086817746, "alt_km": 560.0018303035249, "timestamp": "2025-12-08T15:42:50.189118+00:00", "meta": {"OBJECT_NAME": "COSMOS 2251 DEB", "OBJECT_ID": "1993-036EU", "EPOCH": "2025-12-08T07:23:41.345088", "MEAN_MOTION": 14.99349633, "ECCENTRICITY": 0.00031091, "INCLINATION": 74.0073, "RA_OF_ASC_NODE": 89.6449, "ARG_OF_PERICENTER": 82.4979, "MEAN_ANOMALY": 277.656, "EPHEMERIS_TYPE": 0, "CLASSIFICATION_TYPE": "U", "NORAD_CAT_ID": 33939, "ELEMENT_SET_NO": 999, "REV_AT_EPOCH": 88686, "BSTAR": 0.0040731742, "MEAN_MOTION_DOT": 0.00050146, "MEAN_MOTION_DDOT": 0}, "tle": {"line1": "1 33939U 93036EU  25342.30811742  .00050146  00000+0  40732-2 0  9993", "line2": "2 33939  74.0073  89.6449 0003109  82.4979 277.6560 14.99349633886862"}}, "geometry": {"type": "Point", "coordinates": [126.57836086817746, 64.8427922476083]}}, {"type": "Feature", "properties": {"norad_id": 33940, "name": "COSMOS 2251 DEB", "group": "cosmos-2251-debris", "lat": 71.91475727910547, "lon": -147.51967228244604, "alt_km": 696.9912656383021, "timestamp": "2025-12-08T15:42:50.189129+00:00", "meta": {"OBJECT_NAME": "COSMOS 2251 DEB", "OBJECT_ID": "1993-036EV", "EPOCH": "2025-12-08T04:21:52.153632", "MEAN_MOTION": 14.58722421, "ECCENTRICITY": 0.00115147, "INCLINATION": 74.0396, "RA_OF_ASC_NODE": 152.1748, "ARG_OF_PERICENTER": 231.5509, "MEAN_ANOMALY": 247.5924, "EPHEMERIS_TYPE": 0, "CLASSIFICATION_TYPE": "U", "NORAD_CAT_ID": 33940, "ELEMENT_SET_NO": 999, "REV_AT_EPOCH": 88527, "BSTAR": 0.0014126463, "MEAN_MOTION_DOT": 6.576e-05, "MEAN_MOTION_DDOT": 0}, "tle": {"line1": "1 33940U 93036EV  25342.18185363  .00006576  00000+0  14126-2 0  9990", "line2": "2 33940  74.0396 152.1748 0011514 231.5509 247.5924 14.58722421885274"}}, "geometry": {"type": "Point", "coordinates": [-147.51967228244604, 71.91475727910547]}}, {"type": "Feature", "properties": {"norad_id": 33942, "name": "COSMOS 2251 DEB", "group": "cosmos-2251-debris", "lat": -41.86240252938267, "lon": 117.21396278197291, "alt_km": 782.8112172529873, "timestamp": "2025-12-08T15:42:50.189139+00:00", "meta": {"OBJECT_NAME": "COSMOS 2251 DEB", "OBJECT_ID": "1993-036EX", "EPOCH": "2025-12-08T06:50:37.754016", "MEAN_MOTION": 14.37978605, "ECCENTRICITY": 0.00201008, "INCLINATION": 74.0364, "RA_OF_ASC_NODE": 283.0323, "ARG_OF_PERICENTER": 7.2103, "MEAN_ANOMALY": 104.3138, "EPHEMERIS_TYPE": 0, "CLASSIFICATION_TYPE": "U", "NORAD_CAT_ID": 33942, "ELEMENT_SET_NO": 999, "REV_AT_EPOCH": 88070, "BSTAR": 0.00046462977, "MEAN_MOTION_DOT": 1.382e-05, "MEAN_MOTION_DDOT": 0}, "tle": {"line1": "1 33942U 93036EX  25342.28515919  .00001382  00000+0  46463-3 0  9997", "line2": "2 33942  74.0364 283.0323 0020100   7.2103 104.3138 14.37978605880707"}}, "geometry": {"type": "Point", "coordinates": [117.21396278197291, -41.86240252938267]}}, {"type": "Feature", "properties": {"norad_id": 33944, "name": "COSMOS 2251 DEB", "group": "cosmos-2251-debris", "lat": 65.33737002779161, "lon": 97.8879092965967, "alt_km": 710.6383894587061, "timestamp": "2025-12-08T15:42:50.189149+00:00", "meta": {"OBJECT_NAME": "COSMOS 2251 DEB", "OBJECT_ID": "1993-036EZ", "EPOCH": "2025-12-08T07:22:28.530624", "MEAN_MOTION": 14.37329182, "ECCENTRICITY": 0.01120249, "INCLINATION": 74.0401, "RA_OF_ASC_NODE": 317.0812, "ARG_OF_PERICENTER": 57.8497, "MEAN_ANOMALY": 52.9215, "EPHEMERIS_TYPE": 0, "CLASSIFICATION_TYPE": "U", "NORAD_CAT_ID": 33944, "ELEMENT_SET_NO": 999, "REV_AT_EPOCH": 87964, "BSTAR": 0.00060288602, "MEAN_MOTION_DOT": 1.908e-05, "MEAN_MOTION_DDOT": 0}, "tle": {"line1": "1 33944U 93036EZ  25342.30727466  .00001908  00000+0  60289-3 0  9990", "line2": "2 33944  74.0401 317.0812 0112024  57.8497  52.9215 14.37329182879641"}}, "geometry": {"type": "Point", "coordinates": [97.8879092965967, 65.33737002779161]}}, {"type": "Feature", "properties": {"norad_id": 33945, "name": "COSMOS 2251 DEB", "group": "cosmos-2251-debris", "lat": -55.71205107372288, "lon": -71.08150643638116, "alt_km": 785.9102277273396, "timestamp": "2025-12-08T15:42:50.189160+00:00", "meta": {"OBJECT_NAME": "COSMOS 2251 DEB", "OBJECT_ID": "1993-036FA", "EPOCH": "2025-12-08T07:37:16.286304", "MEAN_MOTION": 14.3459556, "ECCENTRICITY": 0.00217214, "INCLINATION": 74.0295, "RA_OF_ASC_NODE": 314.3705, "ARG_OF_PERICENTER": 42.0358, "MEAN_ANOMALY": 318.2456, "EPHEMERIS_TYPE": 0, "CLASSIFICATION_TYPE": "U", "NORAD_CAT_ID": 33945, "ELEMENT_SET_NO": 999, "REV_AT_EPOCH": 87952, "BSTAR": 0.00027451455, "MEAN_MOTION_DOT": 7.52e-06, "MEAN_MOTION_DDOT": 0}, "tle": {"line1": "1 33945U 93036FA  25342.31754961  .00000752  00000+0  27451-3 0  9992", "line2": "2 33945  74.0295 314.3705 0021721  42.0358 318.2456 14.34595560879523"}}, "geometry": {"type": "Point", "coordinates": [-71.08150643638116, -55.71205107372288]}}, {"type": "Feature", "properties": {"norad_id": 33948, "name": "COSMOS 2251 DEB", "group": "cosmos-2251-debris", "lat": 42.60474837822939, "lon": 117.36510343752542, "alt_km": 773.4099051547373, "timestamp": "2025-12-08T15:42:50.189170+00:00", "meta": {"OBJECT_NAME": "COSMOS 2251 DEB", "OBJECT_ID": "1993-036FD", "EPOCH": "2025-12-08T05:03:13.622976", "MEAN_MOTION": 14.35621206, "ECCENTRICITY": 0.00225119, "INCLINATION": 74.0353, "RA_OF_ASC_NODE": 313.4443, "ARG_OF_PERICENTER": 30.5749, "MEAN_ANOMALY": 329.6711, "EPHEMERIS_TYPE": 0, "CLASSIFICATION_TYPE": "U", "NORAD_CAT_ID": 33948, "ELEMENT_SET_NO": 999, "REV_AT_EPOCH": 87958, "BSTAR": 0.00038346617, "MEAN_MOTION_DOT": 1.083e-05, "MEAN_MOTION_DDOT": 0}, "tle": {"line1": "1 33948U 93036FD  25342.21057434  .00001083  00000+0  38347-3 0  9999", "line2": "2 33948  74.0353 313.4443 0022511  30.5749 329.6711 14.35621206879588"}}, "geometry": {"type": "Point", "coordinates": [117.36510343752542, 42.60474837822939]}}, {"type": "Feature", "properties": {"norad_id": 33971, "name": "COSMOS 2251 DEB", "group": "cosmos-2251-debris", "lat": 35.53133481040376, "lon": 69.47835804260146, "alt_km": 766.7258154782876, "timestamp": "2025-12-08T15:42:50.189181+00:00", "meta": {"OBJECT_NAME": "COSMOS 2251 DEB", "OBJECT_ID": "1993-036FE", "EPOCH": "2025-12-08T05:45:04.502880", "MEAN_MOTION": 14.39713211, "ECCENTRICITY": 0.00183363, "INCLINATION": 74.025, "RA_OF_ASC_NODE": 262.0493, "ARG_OF_PERICENTER": 3.3145, "MEAN_ANOMALY": 148.624, "EPHEMERIS_TYPE": 0, "CLASSIFICATION_TYPE": "U", "NORAD_CAT_ID": 33971, "ELEMENT_SET_NO": 999, "REV_AT_EPOCH": 88074, "BSTAR": 0.0005837747, "MEAN_MOTION_DOT": 1.805e-05, "MEAN_MOTION_DDOT": 0}, "tle": {"line1": "1 33971U 93036FE  25342.23963545  .00001805  00000+0  58377-3 0  9993", "line2": "2 33971  74.0250 262.0493 0018336   3.3145 148.6240 14.39713211880740"}}, "geometry": {"type": "Point", "coordinates": [69.47835804260146, 35.53133481040376]}}, {"type": "Feature", "properties": {"norad_id": 33972, "name": "COSMOS 2251 DEB", "group": "cosmos-2251-debris", "lat": 44.236755128746445, "lon": 1.9563853668848128, "alt_km": 818.7901796017186, "timestamp": "2025-12-08T15:42:50.189191+00:00", "meta": {"OBJECT_NAME": "COSMOS 2251 DEB", "OBJECT_ID": "1993-036FF", "EPOCH": "2025-12-08T07:17:44.253024", "MEAN_MOTION": 14.36175973, "ECCENTRICITY": 0.01230828, "INCLINATION": 73.9937, "RA_OF_ASC_NODE": 198.8326, "ARG_OF_PERICENTER": 7.5364, "MEAN_ANOMALY": 111.914, "EPHEMERIS_TYPE": 0, "CLASSIFICATION_TYPE": "U", "NORAD_CAT_ID": 33972, "ELEMENT_SET_NO": 999, "REV_AT_EPOCH": 87010, "BSTAR": 0.0015325392, "MEAN_MOTION_DOT": 4.848e-05, "MEAN_MOTION_DDOT": 0}, "tle": {"line1": "1 33972U 93036FF  25342.30398441  .00004848  00000+0  15325-2 0  9994", "line2": "2 33972  73.9937 198.8326 0123082   7.5364 111.9140 14.36175973870101"}}, "geometry": {"type": "Point", "coordinates": [1.9563853668848128, 44.236755128746445]}}, {"type": "Feature", "properties": {"norad_id": 33973, "name": "COSMOS 2251 DEB", "group": "cosmos-2251-debris", "lat": 66.04045498001734, "lon": -109.67264375446119, "alt_km": 767.5917736528181, "timestamp": "2025-12-08T15:42:50.189202+00:00", "meta": {"OBJECT_NAME": "COSMOS 2251 DEB", "OBJECT_ID": "1993-036FG", "EPOCH": "2025-12-07T19:49:59.207808", "MEAN_MOTION": 14.45382524, "ECCENTRICITY": 0.00472415, "INCLINATION": 74.0077, "RA_OF_ASC_NODE": 112.0661, "ARG_OF_PERICENTER": 291.3954, "MEAN_ANOMALY": 188.0607, "EPHEMERIS_TYPE": 0, "CLASSIFICATION_TYPE": "U", "NORAD_CAT_ID": 33973, "ELEMENT_SET_NO": 999, "REV_AT_EPOCH": 88529, "BSTAR": 0.0002798666, "MEAN_MOTION_DOT": 9.7e-06, "MEAN_MOTION_DDOT": 0}, "tle": {"line1": "1 33973U 93036FG  25341.82637972  .00000970  00000+0  27987-3 0  9996", "line2": "2 33973  74.0077 112.0661 0047241 291.3954 188.0607 14.45382524885290"}}, "geometry": {"type": "Point", "coordinates": [-109.67264375446119, 66.04045498001734]}}, {"type": "Feature", "properties": {"norad_id": 33975, "name": "COSMOS 2251 DEB", "group": "cosmos-2251-debris", "lat": -9.577405893708276, "lon": 88.82230190246304, "alt_km": 973.7458668753534, "timestamp": "2025-12-08T15:42:50.189212+00:00", "meta": {"OBJECT_NAME": "COSMOS 2251 DEB", "OBJECT_ID": "1993-036FJ", "EPOCH": "2025-12-08T07:11:27.421152", "MEAN_MOTION": 14.00510366, "ECCENTRICITY": 0.0191408, "INCLINATION": 73.8015, "RA_OF_ASC_NODE": 92.2576, "ARG_OF_PERICENTER": 225.8264, "MEAN_ANOMALY": 132.7003, "EPHEMERIS_TYPE": 0, "CLASSIFICATION_TYPE": "U", "NORAD_CAT_ID": 33975, "ELEMENT_SET_NO": 999, "REV_AT_EPOCH": 85767, "BSTAR": 0.00126595, "MEAN_MOTION_DOT": 2.177e-05, "MEAN_MOTION_DDOT": 0}, "tle": {"line1": "1 33975U 93036FJ  25342.29962293  .00002177  00000+0  12660-2 0  9999", "line2": "2 33975  73.8015  92.2576 0191408 225.8264 132.7003 14.00510366857671"}}, "geometry": {"type": "Point", "coordinates": [88.82230190246304, -9.577405893708276]}}]}